{"type":"Topology","objects":{"collection":{"type":"GeometryCollection","geometries":[{"properties":{"tags":{"landuse":"grass","type":"multipolygon"}},"type":"Polygon","arcs":[[0],[1,2,3,4,5,6,7,8]]},{"properties":{"tags":{"landuse":"grass","source":"3dShapes"}},"type":"Polygon","arcs":[[9]]},{"properties":{"tags":{"landuse":"grass","source":"3dShapes"}},"type":"Polygon","arcs":[[10]]},{"properties":{"tags":{"landuse":"grass","source":"3dShapes"}},"type":"Polygon","arcs":[[11]]},{"properties":{"tags":{"landuse":"grass","source":"3dShapes"}},"type":"Polygon","arcs":[[12]]},{"properties":{"tags":{"landuse":"grass","source":"3dShapes"}},"type":"Polygon","arcs":[[13,14,15,16,17,18]]},{"properties":{"tags":{"landuse":"grass","source":"3dShapes"}},"type":"Polygon","arcs":[[19]]},{"properties":{"tags":{"natural":"water","source":"3dShapes"}},"type":"Polygon","arcs":[[20,21]]},{"properties":{"tags":{"landuse":"grass","source":"3dShapes"}},"type":"Polygon","arcs":[[22,23,24,25,26]]},{"properties":{"tags":{"landuse":"grass","layer":"1","source":"3dShapes"}},"type":"Polygon","arcs":[[27,28,29,30]]},{"properties":{"tags":{"natural":"water","source":"3dShapes"}},"type":"Polygon","arcs":[[31,32,33,34]]},{"properties":{"tags":{"landuse":"grass","source":"3dShapes"}},"type":"Polygon","arcs":[[35]]},{"properties":{"tags":{"landuse":"grass","source":"3dShapes"}},"type":"Polygon","arcs":[[36,37,38,39]]},{"properties":{"tags":{"landuse":"grass","source":"3dShapes"}},"type":"Polygon","arcs":[[40,41,42,43,44,45]]},{"properties":{"tags":{"natural":"water","source":"3dShapes"}},"type":"Polygon","arcs":[[46,47]]},{"properties":{"tags":{"landuse":"grass","source":"3dShapes"}},"type":"Polygon","arcs":[[48]]},{"properties":{"tags":{"landuse":"grass","source":"3dShapes"}},"type":"Polygon","arcs":[[49]]},{"properties":{"tags":{"landuse":"grass","source":"3dShapes"}},"type":"Polygon","arcs":[[50,51,52,53,54,55,56,57]]},{"properties":{"tags":{"landuse":"grass","source":"3dShapes"}},"type":"Polygon","arcs":[[58]]},{"properties":{"tags":{"landuse":"grass","source":"3dShapes"}},"type":"Polygon","arcs":[[59]]},{"properties":{"tags":{"landuse":"grass","source":"3dShapes"}},"type":"Polygon","arcs":[[60]]},{"properties":{"tags":{"landuse":"grass","source":"3dShapes"}},"type":"Polygon","arcs":[[61]]},{"properties":{"tags":{"landuse":"grass","source":"3dShapes"}},"type":"Polygon","arcs":[[62,63,64,65,66,67]]},{"properties":{"tags":{"landuse":"grass","source":"3dShapes"}},"type":"Polygon","arcs":[[68]]},{"properties":{"tags":{"landuse":"grass","source":"3dShapes"}},"type":"Polygon","arcs":[[69]]},{"properties":{"tags":{"landuse":"grass","source":"3dShapes"}},"type":"Polygon","arcs":[[70,71,72,73,74,75,76,77,78,79,80,81,82,83]]},{"properties":{"tags":{"landuse":"grass","source":"3dShapes"}},"type":"Polygon","arcs":[[84]]},{"properties":{"tags":{"landuse":"grass","source":"3dShapes"}},"type":"Polygon","arcs":[[85]]},{"properties":{"tags":{"landuse":"grass","source":"3dShapes"}},"type":"Polygon","arcs":[[86]]},{"properties":{"tags":{"natural":"water","source":"3dShapes"}},"type":"Polygon","arcs":[[87,88]]},{"properties":{"tags":{"landuse":"grass","source":"3dShapes"}},"type":"Polygon","arcs":[[89,90,91]]},{"properties":{"tags":{"natural":"water","source":"3dShapes"}},"type":"Polygon","arcs":[[92,93]]},{"properties":{"tags":{"landuse":"grass","source":"3dShapes"}},"type":"Polygon","arcs":[[94]]},{"properties":{"tags":{"landuse":"grass","source":"3dShapes"}},"type":"Polygon","arcs":[[95,96,97,98,99,100,101,102,103,104,105,106,107]]},{"properties":{"tags":{"landuse":"grass","source":"3dShapes"}},"type":"Polygon","arcs":[[108,109]]},{"properties":{"tags":{"landuse":"grass","leisure":"playground","source":"3dShapes"}},"type":"Polygon","arcs":[[110]]},{"properties":{"tags":{"natural":"water","source":"3dShapes"}},"type":"Polygon","arcs":[[111]]},{"properties":{"tags":{"landuse":"grass","source":"3dShapes"}},"type":"Polygon","arcs":[[112,113,114,115]]},{"properties":{"tags":{"landuse":"grass","source":"3dShapes"}},"type":"Polygon","arcs":[[116]]},{"properties":{"tags":{"landuse":"grass","source":"3dShapes"}},"type":"Polygon","arcs":[[117]]},{"properties":{"tags":{"landuse":"grass","source":"3dShapes"}},"type":"Polygon","arcs":[[118,119,120,121,122,123,124,125]]},{"properties":{"tags":{"landuse":"grass","source":"3dShapes"}},"type":"Polygon","arcs":[[126]]},{"properties":{"tags":{"natural":"water","source":"3dShapes"}},"type":"Polygon","arcs":[[127,128,129]]},{"properties":{"tags":{"natural":"water","source":"3dShapes"}},"type":"Polygon","arcs":[[130,131,132,133,134,135,136]]},{"properties":{"tags":{"landuse":"grass"}},"type":"Polygon","arcs":[[137]]},{"properties":{"tags":{"landuse":"grass","source":"3dShapes"}},"type":"Polygon","arcs":[[138]]},{"properties":{"tags":{"landuse":"grass","source":"3dShapes"}},"type":"Polygon","arcs":[[139,140]]},{"properties":{"tags":{"natural":"water","source":"3dShapes"}},"type":"Polygon","arcs":[[141,142,143,144]]},{"properties":{"tags":{"landuse":"grass","source":"3dShapes"}},"type":"Polygon","arcs":[[145]]},{"properties":{"tags":{"landuse":"grass","source":"3dShapes"}},"type":"Polygon","arcs":[[146]]},{"properties":{"tags":{"landuse":"grass","source":"3dShapes"}},"type":"Polygon","arcs":[[147,148,149]]},{"properties":{"tags":{"landuse":"grass","source":"3dShapes"}},"type":"Polygon","arcs":[[150]]},{"properties":{"tags":{"natural":"water","source":"3dShapes"}},"type":"Polygon","arcs":[[151,152]]},{"properties":{"tags":{"landuse":"grass","source":"3dShapes"}},"type":"Polygon","arcs":[[153]]},{"properties":{"tags":{"landuse":"grass","source":"3dShapes"}},"type":"Polygon","arcs":[[154]]},{"properties":{"tags":{"natural":"water","source":"3dShapes"}},"type":"Polygon","arcs":[[155,156]]},{"properties":{"tags":{"natural":"water","source":"3dShapes"}},"type":"Polygon","arcs":[[157,158,159,160,161,162,163,164,165,166,167,168]]},{"properties":{"tags":{"natural":"water","source":"3dShapes"}},"type":"Polygon","arcs":[[169,-170,170]]},{"properties":{"tags":{"landuse":"grass","source":"3dShapes"}},"type":"Polygon","arcs":[[171]]},{"properties":{"tags":{"landuse":"grass","source":"3dShapes"}},"type":"Polygon","arcs":[[172]]},{"properties":{"tags":{"landuse":"grass","source":"3dShapes"}},"type":"Polygon","arcs":[[173,174]]},{"properties":{"tags":{"natural":"water","source":"3dShapes"}},"type":"Polygon","arcs":[[175,176]]},{"properties":{"tags":{"landuse":"grass","source":"3dShapes"}},"type":"Polygon","arcs":[[177]]},{"properties":{"tags":{"landuse":"grass","source":"3dShapes"}},"type":"Polygon","arcs":[[178,179,180,181,182,183,184,185,186,187,188,189,190,191,192,193,194,195]]},{"properties":{"tags":{"natural":"water","source":"3dShapes"}},"type":"Polygon","arcs":[[196,197,-32]]},{"properties":{"tags":{"natural":"water","source":"3dShapes"}},"type":"Polygon","arcs":[[198,199]]},{"properties":{"tags":{"natural":"water","source":"3dShapes"}},"type":"Polygon","arcs":[[200,201,202,203,204,205,206,207]]},{"properties":{"tags":{"landuse":"grass","source":"3dShapes"}},"type":"Polygon","arcs":[[208]]},{"properties":{"tags":{"natural":"water","source":"3dShapes"}},"type":"Polygon","arcs":[[209,210]]},{"properties":{"tags":{"landuse":"grass","source":"3dShapes"}},"type":"Polygon","arcs":[[211]]},{"properties":{"tags":{"layer":"-1","natural":"water","source":"3dShapes"}},"type":"Polygon","arcs":[[212,213,214,215,216,217]]},{"properties":{"tags":{"natural":"water","source":"3dShapes"}},"type":"Polygon","arcs":[[218,219,220,221,222,223,224,225,226,227,228,229]]},{"properties":{"tags":{"landuse":"grass","source":"3dShapes"}},"type":"Polygon","arcs":[[230]]},{"properties":{"tags":{"landuse":"grass","source":"3dShapes"}},"type":"Polygon","arcs":[[231]]},{"properties":{"tags":{"landuse":"grass","source":"3dShapes"}},"type":"Polygon","arcs":[[232]]},{"properties":{"tags":{"landuse":"grass","source":"3dShapes"}},"type":"Polygon","arcs":[[233]]},{"properties":{"tags":{"natural":"water","source":"3dShapes"}},"type":"Polygon","arcs":[[234,-235,235]]},{"properties":{"tags":{"landuse":"grass","source":"3dShapes"}},"type":"Polygon","arcs":[[236]]},{"properties":{"tags":{"landuse":"grass","source":"3dShapes"}},"type":"Polygon","arcs":[[237]]},{"properties":{"tags":{"natural":"water","source":"3dShapes"}},"type":"Polygon","arcs":[[238,239,240,241,242,243,244,245,246,247,248,249,250]]},{"properties":{"tags":{"landuse":"grass","source":"3dShapes"}},"type":"Polygon","arcs":[[251]]},{"properties":{"tags":{"natural":"water","source":"3dShapes"}},"type":"Polygon","arcs":[[252]]},{"properties":{"tags":{"landuse":"grass","source":"3dShapes"}},"type":"Polygon","arcs":[[253]]},{"properties":{"tags":{"natural":"water","source":"3dShapes"}},"type":"Polygon","arcs":[[254,255]]},{"properties":{"tags":{"landuse":"grass","source":"3dShapes"}},"type":"Polygon","arcs":[[256]]},{"properties":{"tags":{"landuse":"grass","source":"3dShapes"}},"type":"Polygon","arcs":[[257,258]]},{"properties":{"tags":{"landuse":"grass","source":"3dShapes"}},"type":"Polygon","arcs":[[259]]},{"properties":{"tags":{"landuse":"grass","source":"3dShapes"}},"type":"Polygon","arcs":[[260]]},{"properties":{"tags":{"landuse":"grass","source":"3dShapes"}},"type":"Polygon","arcs":[[261,262,263,264,265,266]]},{"properties":{"tags":{"natural":"water","source":"3dShapes"}},"type":"Polygon","arcs":[[267,-268,268]]},{"properties":{"tags":{"landuse":"grass","source":"3dShapes"}},"type":"Polygon","arcs":[[269]]},{"properties":{"tags":{"landuse":"grass","source":"3dShapes"}},"type":"Polygon","arcs":[[270,271]]},{"properties":{"tags":{"landuse":"grass","source":"3dShapes"}},"type":"Polygon","arcs":[[272]]},{"properties":{"tags":{"landuse":"grass","source":"3dShapes"}},"type":"Polygon","arcs":[[273]]},{"properties":{"tags":{"landuse":"grass","source":"3dShapes"}},"type":"Polygon","arcs":[[274]]},{"properties":{"tags":{"landuse":"grass","source":"3dShapes"}},"type":"Polygon","arcs":[[275]]},{"properties":{"tags":{"landuse":"grass","source":"3dShapes"}},"type":"Polygon","arcs":[[276,277,278,279,280,281,282,283,284,285,286,287,288,289]]},{"properties":{"tags":{"landuse":"grass","source":"3dShapes"}},"type":"Polygon","arcs":[[290]]},{"properties":{"tags":{"landuse":"grass","source":"3dShapes"}},"type":"Polygon","arcs":[[291]]},{"properties":{"tags":{"natural":"water","source":"3dShapes"}},"type":"Polygon","arcs":[[292,293,294]]},{"properties":{"tags":{"landuse":"grass","source":"3dShapes"}},"type":"Polygon","arcs":[[295]]},{"properties":{"tags":{"landuse":"grass","source":"3dShapes"}},"type":"Polygon","arcs":[[296]]},{"properties":{"tags":{"natural":"water","source":"3dShapes"}},"type":"Polygon","arcs":[[297,298]]},{"properties":{"tags":{"landuse":"grass","source":"3dShapes"}},"type":"Polygon","arcs":[[299]]},{"properties":{"tags":{"landuse":"grass","source":"3dShapes"}},"type":"Polygon","arcs":[[300]]},{"properties":{"tags":{"landuse":"grass","source":"3dShapes"}},"type":"Polygon","arcs":[[301]]},{"properties":{"tags":{"landuse":"grass","source":"3dShapes"}},"type":"Polygon","arcs":[[302]]},{"properties":{"tags":{"natural":"water","source":"3dShapes"}},"type":"Polygon","arcs":[[303,304]]},{"properties":{"tags":{"landuse":"grass","source":"3dShapes"}},"type":"Polygon","arcs":[[305]]},{"properties":{"tags":{"landuse":"grass","source":"3dShapes"}},"type":"Polygon","arcs":[[306]]},{"properties":{"tags":{"natural":"water","source":"3dShapes"}},"type":"Polygon","arcs":[[307]]},{"properties":{"tags":{"landuse":"grass","source":"3dShapes"}},"type":"Polygon","arcs":[[308]]},{"properties":{"tags":{"landuse":"grass","source":"3dShapes"}},"type":"Polygon","arcs":[[309]]},{"properties":{"tags":{"natural":"water","source":"3dShapes"}},"type":"Polygon","arcs":[[310,-294,311]]},{"properties":{"tags":{"natural":"water","source":"3dShapes"}},"type":"Polygon","arcs":[[312,313]]},{"properties":{"tags":{"landuse":"grass","source":"3dShapes"}},"type":"Polygon","arcs":[[314]]},{"properties":{"tags":{"landuse":"grass","source":"3dShapes"}},"type":"Polygon","arcs":[[315,316,317,318]]},{"properties":{"tags":{"natural":"water","source":"3dShapes"}},"type":"Polygon","arcs":[[319,320,321,322,323,324]]},{"properties":{"tags":{"landuse":"grass","source":"3dShapes"}},"type":"Polygon","arcs":[[325]]},{"properties":{"tags":{"landuse":"grass","source":"3dShapes"}},"type":"Polygon","arcs":[[326]]},{"properties":{"tags":{"landuse":"grass","source":"3dShapes"}},"type":"Polygon","arcs":[[327]]},{"properties":{"tags":{"natural":"water","source":"3dShapes"}},"type":"Polygon","arcs":[[328,-329,329]]},{"properties":{"tags":{"landuse":"grass","source":"3dShapes"}},"type":"Polygon","arcs":[[330]]},{"properties":{"tags":{"landuse":"grass","source":"3dShapes"}},"type":"Polygon","arcs":[[331]]},{"properties":{"tags":{"natural":"water","source":"3dShapes"}},"type":"Polygon","arcs":[[332,-333,333]]},{"properties":{"tags":{"landuse":"grass","source":"3dShapes"}},"type":"Polygon","arcs":[[334]]},{"properties":{"tags":{"landuse":"grass","source":"3dShapes"}},"type":"Polygon","arcs":[[335]]},{"properties":{"tags":{"landuse":"grass","source":"3dShapes"}},"type":"Polygon","arcs":[[336]]},{"properties":{"tags":{"landuse":"grass","source":"3dShapes"}},"type":"Polygon","arcs":[[337]]},{"properties":{"tags":{"layer":"1","natural":"water","source":"3dShapes"}},"type":"Polygon","arcs":[[338,33,34]]},{"properties":{"tags":{"landuse":"grass","source":"3dShapes"}},"type":"Polygon","arcs":[[339]]},{"properties":{"tags":{"landuse":"grass","source":"3dShapes"}},"type":"Polygon","arcs":[[340]]},{"properties":{"tags":{"natural":"water","source":"3dShapes"}},"type":"Polygon","arcs":[[341,-342,342]]},{"properties":{"tags":{"landuse":"grass","source":"3dShapes"}},"type":"Polygon","arcs":[[343]]},{"properties":{"tags":{"landuse":"grass","source":"3dShapes"}},"type":"Polygon","arcs":[[344]]},{"properties":{"tags":{"landuse":"grass","source":"3dShapes"}},"type":"Polygon","arcs":[[345]]},{"properties":{"tags":{"landuse":"grass","source":"3dShapes"}},"type":"Polygon","arcs":[[346]]},{"properties":{"tags":{"natural":"water","source":"3dShapes"}},"type":"Polygon","arcs":[[347,348]]},{"properties":{"tags":{"landuse":"grass","source":"3dShapes"}},"type":"Polygon","arcs":[[349]]},{"properties":{"tags":{"landuse":"grass","source":"3dShapes"}},"type":"Polygon","arcs":[[350]]},{"properties":{"tags":{"natural":"water","source":"3dShapes"}},"type":"Polygon","arcs":[[351,352]]},{"properties":{"tags":{"natural":"water","source":"3dShapes"}},"type":"Polygon","arcs":[[353,-354,354]]},{"properties":{"tags":{"landuse":"grass","source":"3dShapes"}},"type":"Polygon","arcs":[[355]]},{"properties":{"tags":{"landuse":"grass","source":"3dShapes"}},"type":"Polygon","arcs":[[356]]},{"properties":{"tags":{"natural":"water","source":"3dShapes"}},"type":"Polygon","arcs":[[357,358]]},{"properties":{"tags":{"landuse":"grass","source":"3dShapes"}},"type":"Polygon","arcs":[[359]]},{"properties":{"tags":{"landuse":"grass","source":"3dShapes"}},"type":"Polygon","arcs":[[360]]},{"properties":{"tags":{"landuse":"grass","source":"3dShapes"}},"type":"Polygon","arcs":[[361,362,363]]},{"properties":{"tags":{"landuse":"grass","source":"3dShapes"}},"type":"Polygon","arcs":[[364]]},{"properties":{"tags":{"landuse":"grass","source":"3dShapes"}},"type":"Polygon","arcs":[[365]]},{"properties":{"tags":{"landuse":"grass","source":"3dShapes"}},"type":"Polygon","arcs":[[366,367,368,369,370]]},{"properties":{"tags":{"landuse":"grass","source":"3dShapes"}},"type":"Polygon","arcs":[[371,372,373,374,375,-107]]},{"properties":{"tags":{"landuse":"grass","source":"3dShapes"}},"type":"Polygon","arcs":[[376,377,378]]},{"properties":{"tags":{"landuse":"grass","source":"3dShapes"}},"type":"Polygon","arcs":[[379,-380,380]]},{"properties":{"tags":{"natural":"water","source":"3dShapes"}},"type":"Polygon","arcs":[[381,382,383,384,385,386,387,388,389,390,391,392,393]]},{"properties":{"tags":{"natural":"water","source":"3dShapes"}},"type":"Polygon","arcs":[[394,395,396,397,398,399,400,401,402,403,404]]},{"properties":{"tags":{"landuse":"grass","source":"3dShapes"}},"type":"Polygon","arcs":[[405]]},{"properties":{"tags":{"natural":"water"}},"type":"Polygon","arcs":[[406]]},{"properties":{"tags":{"landuse":"grass","source":"Bing"}},"type":"Polygon","arcs":[[407]]},{"properties":{"tags":{"landuse":"grass","source":"3dShapes"}},"type":"Polygon","arcs":[[408]]},{"properties":{"tags":{"landuse":"grass","source":"3dShapes"}},"type":"Polygon","arcs":[[409]]},{"properties":{"tags":{"landuse":"grass","source":"3dShapes"}},"type":"Polygon","arcs":[[410]]},{"properties":{"tags":{"landuse":"grass"}},"type":"Polygon","arcs":[[411]]},{"properties":{"tags":{"landuse":"grass","source":"Bing"}},"type":"Polygon","arcs":[[412]]},{"properties":{"tags":{"natural":"water","source":"Bing"}},"type":"Polygon","arcs":[[413,414,415,416,417,418,419,-9]]},{"properties":{"tags":{"landuse":"grass","source":"Bing"}},"type":"Polygon","arcs":[[420]]},{"properties":{"tags":{"landuse":"grass","source":"Bing"}},"type":"Polygon","arcs":[[421,422]]},{"properties":{"tags":{"landuse":"grass","source":"Bing"}},"type":"Polygon","arcs":[[423,424]]},{"properties":{"tags":{"landuse":"grass","source":"Bing"}},"type":"Polygon","arcs":[[425,426,427]]},{"properties":{"tags":{"landuse":"grass","source":"Bing"}},"type":"Polygon","arcs":[[428]]}]}},"arcs":[[[7494,8557],[14,-4],[20,-15],[16,-29],[3,-40],[-11,-41],[-18,-79],[-15,-67],[-19,-68],[152,3],[148,-6],[3,165],[4,189],[-5,4],[0,17],[-148,-1],[1,51],[-60,16],[-6,-10],[-19,-19],[-28,-21],[-19,-22],[-13,-23]],[[7724,8540],[21,-47],[8,-49]],[[7753,8444],[0,-57],[-15,-46]],[[7738,8341],[-18,-20],[-23,-5]],[[7697,8316],[-28,5],[-32,28]],[[7637,8349],[-18,43],[-22,69]],[[7597,8461],[5,60],[24,33]],[[7626,8554],[35,15],[37,-5]],[[7698,8564],[26,-24]],[[5210,7808],[6,56],[-8,187],[6,195],[13,238],[-68,2],[-33,-509],[-6,-79],[17,-74],[10,-28],[63,12]],[[6533,8615],[1,41],[-120,-1],[-9,-3],[-3,-92],[130,5],[1,50]],[[1906,3807],[31,13],[29,4],[32,1],[25,0],[1,24],[-9,12],[-37,41],[-13,1],[-49,-28],[-412,-228],[19,-25],[11,-14],[207,114],[165,85]],[[1740,7715],[-94,-104],[103,-72],[80,-52],[17,-10],[23,-7],[51,-8],[28,0],[6,3],[11,4],[17,17],[44,40],[58,45],[-90,140],[-7,7],[-182,14],[-63,4],[-2,-21]],[[7146,8744],[-35,98],[-17,82]],[[7094,8924],[-8,86],[9,112]],[[7095,9122],[19,77],[31,78]],[[7145,9277],[28,61],[28,52]],[[7201,9390],[32,46],[9,14]],[[7242,9450],[64,71],[-47,35],[-57,-63],[-33,-43],[-41,-64],[-30,-60],[-18,-54],[-24,-88],[-9,-51],[-9,-71],[-4,-60],[2,-60],[11,-81],[22,-73],[19,-51],[30,-63],[11,-22],[50,20],[-33,72]],[[8112,8825],[-1,-93],[-2,-152],[152,0],[3,97],[2,89],[37,0],[355,0],[16,0],[36,0],[1,28],[-12,16],[-16,7],[-18,1],[-1,-21],[-335,-2],[0,27],[-217,3]],[[7382,7986],[60,5],[-2,35],[-52,-3]],[[7388,8023],[-15,-2],[9,-35]],[[6070,2555],[-11,-17],[-32,-29]],[[6027,2509],[-49,-32],[-54,-22]],[[5924,2455],[-46,-17],[-19,-10]],[[5859,2428],[-25,-25],[-17,-36]],[[5817,2367],[-8,-24],[15,17],[42,25],[44,20],[51,23],[18,9],[29,14],[31,22],[17,19],[8,23],[6,40]],[[7375,8057],[56,19]],[[7431,8076],[-6,18]],[[7425,8094],[-55,-14]],[[7370,8080],[5,-23]],[[7438,8039],[-20,0]],[[7418,8039],[-48,-5]],[[7370,8034],[18,-11]],[[7388,8023],[50,16]],[[1152,1407],[-73,-40],[11,-9],[16,-6],[34,-19],[86,-43],[175,-86],[26,-12],[8,0],[43,51],[4,13],[-2,5],[-83,45],[-213,115],[-8,1],[-24,-15]],[[2640,7116],[100,-31],[56,-8]],[[2796,7077],[27,3],[30,7]],[[2853,7087],[15,6],[13,10]],[[2881,7103],[18,27],[-68,16],[-159,40],[-13,5],[-15,14],[-14,22],[-22,-3],[-15,-6],[-12,-7],[-270,64],[-35,11],[-9,8],[-67,105],[-49,84],[-74,-37],[26,-28],[10,-17],[2,-11],[-11,-24],[94,-66],[138,-74],[152,-65],[68,-20],[53,-17],[31,-8]],[[5809,1126],[130,219],[37,70]],[[5976,1415],[23,78],[10,65]],[[6009,1558],[-1,63],[-9,82]],[[5999,1703],[-17,65],[-36,77]],[[5946,1845],[-26,43],[-82,-46],[87,-103],[24,-39],[22,-54],[8,-42],[4,-52],[-6,-51],[-13,-40],[-22,-43],[-54,-82],[-55,-93],[-51,-77],[-18,-29],[16,-40],[4,-10]],[[5784,1087],[14,23],[11,16]],[[7823,6875],[-51,-12],[8,-36]],[[7780,6827],[62,10],[-19,38]],[[3594,7754],[-57,-26],[34,-59],[143,-311],[132,39],[-4,28],[-161,223],[-87,106]],[[5691,2278],[-13,-4],[-38,-14],[-28,-13],[-25,-16],[-16,-17],[-7,-17],[0,-16],[3,-21],[9,-16],[13,-15],[16,-12],[21,-7],[30,-5],[65,0],[16,-2],[-1,15],[-10,62],[-20,65],[-15,33]],[[6451,3252],[-57,-62],[-57,-83]],[[6337,3107],[-18,-38],[-103,-78]],[[6216,2991],[-85,-69],[-29,-36]],[[6102,2886],[-34,-39],[20,-10]],[[6088,2837],[11,24],[34,36]],[[6133,2897],[198,173],[22,20]],[[6353,3090],[24,37],[39,53]],[[6416,3180],[57,56],[-22,16]],[[3338,7023],[24,5],[41,11],[60,15],[97,15],[46,8],[110,13],[13,10],[3,16],[-78,88],[-30,-9],[-2,-13],[-122,-37],[-67,-33],[-44,-32],[-58,-49],[7,-8]],[[2620,858],[-88,38],[-190,-460],[35,-12],[29,63],[22,-8],[34,78],[-22,7],[63,142],[34,-10],[14,35],[-15,6],[47,99],[21,-6],[16,28]],[[5713,2570],[-9,5],[-78,20],[-16,-34],[-13,-20],[-3,-14],[3,-40],[0,-24],[-7,-18],[-17,-16],[-27,-21],[-9,-12],[-5,-14],[9,-24],[42,-31],[82,-11],[23,-8],[6,1],[2,29],[11,84],[12,71],[3,32],[-4,38],[-5,7]],[[814,3508],[78,129],[-138,51],[-7,-20],[31,-14],[-62,-95],[74,-37],[24,-14]],[[726,3407],[-21,-23],[-44,-34]],[[661,3350],[-37,-20],[-29,-9]],[[595,3321],[-21,-4],[-67,-21]],[[507,3296],[-120,-39],[-52,-19]],[[335,3238],[-67,-31],[-96,-50]],[[172,3157],[-77,-46],[43,-51],[130,83],[55,30],[123,54],[77,30],[176,64],[47,76],[-20,10]],[[4321,7255],[52,29],[-36,82],[-13,8],[-19,5],[-23,-6],[-121,-37],[-209,-63],[-23,-10],[-11,-14],[-2,-18],[19,-54],[-15,-5],[6,-17],[395,100]],[[5430,2413],[-4,-4],[-49,-30],[-22,-18],[-14,-13],[-2,-15],[6,-13],[13,-9],[12,-5],[20,-2],[14,6],[57,39],[37,27],[2,8],[-3,15],[-2,7],[-9,7],[-28,8],[-13,1],[-15,-9]],[[8177,5992],[21,17],[47,29]],[[8245,6038],[28,5],[67,3]],[[8340,6046],[41,0],[39,4]],[[8420,6050],[37,9],[34,1]],[[8491,6060],[6,0],[9,22],[-14,-2]],[[8492,6080],[-59,7],[-19,-9]],[[8414,6078],[-27,-10],[-41,-8]],[[8346,6060],[-43,-4],[-47,1]],[[8256,6057],[-33,3],[-46,12]],[[8177,6072],[-54,26],[-41,27]],[[8082,6125],[-56,34]],[[8026,6159],[10,-23],[12,-31]],[[8048,6105],[35,-54],[12,-12]],[[8095,6039],[82,-47]],[[987,2722],[29,27],[-31,21],[-208,144],[122,123],[-31,18],[111,110],[2,9],[-4,3],[-26,-9],[-341,-176],[-5,-9],[2,-8],[277,-185],[103,-68]],[[3303,7062],[96,95],[49,39],[61,32],[58,24],[33,15],[-13,14],[-27,-9],[-8,1],[-53,-23],[-59,-44],[-45,-43],[-96,-97],[4,-4]],[[1182,3413],[-14,13],[-123,105],[-69,56],[-49,33],[-12,6],[-13,-22],[-52,-91],[-10,-16],[151,-75],[56,-26],[21,3],[114,14]],[[8117,4657],[-48,23],[-16,-29]],[[8053,4651],[46,-22],[18,28]],[[8356,5109],[-25,-43],[-21,-44]],[[8310,5022],[-19,-39],[-26,-78]],[[8265,4905],[-4,-20],[17,18],[57,70],[46,55],[129,115],[-78,59],[-76,-93]],[[7403,8159],[-56,-4],[5,-28]],[[7352,8127],[61,2],[-10,30]],[[5739,1915],[-6,30],[-2,47],[4,38],[4,51],[-2,5],[-12,1],[-87,5],[1,-38],[4,-12],[12,-21],[67,-90],[17,-16]],[[8339,5175],[31,43],[30,34]],[[8400,5252],[28,27],[18,22]],[[8446,5301],[27,25],[26,30]],[[8499,5356],[22,33],[12,30]],[[8533,5419],[9,35],[-5,81]],[[8537,5535],[-15,53],[-22,46]],[[8500,5634],[-8,13],[-16,-5]],[[8476,5642],[5,-8],[15,-32]],[[8496,5602],[7,-24],[10,-82]],[[8513,5496],[3,-38],[-8,-47]],[[8508,5411],[-8,-27],[-22,-30]],[[8478,5354],[-35,-24]],[[8443,5330],[-41,-38],[-2,-9],[-10,-23],[-12,-10],[-24,-12],[-19,-29],[-19,-31],[-6,-12],[21,-5],[8,14]],[[5630,570],[-30,-23],[-65,-12]],[[5535,535],[-121,-18],[-41,-56],[14,-38],[7,-35],[-5,-29],[-9,-23],[-19,-18],[-26,-18],[13,-36],[8,-39],[1,-28],[-6,-25],[-13,-24],[-27,-36],[-20,-19],[35,-14],[36,-19],[9,53],[12,53],[22,69],[40,65],[40,52],[24,21],[103,65],[117,106],[28,36],[-43,21],[-62,28],[-22,-59]],[[504,8785],[-4,-14],[-4,-26],[3,-11],[104,-120],[187,-210],[133,87],[104,71],[-63,69],[-180,204],[-41,6],[0,9],[2,9],[14,21],[-36,-4],[-7,-37],[-183,35],[-29,-89]],[[7823,6875],[-64,128],[-35,70],[-41,-11],[140,-187]],[[6102,2886],[114,105]],[[6216,2991],[121,116]],[[6337,3107],[114,145]],[[6451,3252],[-30,25],[-495,-258],[8,-14],[10,-56],[3,-8],[68,37],[147,31],[32,-23],[-141,-120],[49,20]],[[5422,7071],[3,42],[6,32],[3,44],[-13,5],[-12,2],[-9,0],[-11,-2],[33,-123]],[[5345,8614],[-6,-57],[226,-10],[61,0],[16,4],[5,9],[4,39],[-3,23],[-6,5],[-25,0],[-272,-13]],[[5962,1912],[8,-10],[14,-27]],[[5984,1875],[24,-48],[19,-59]],[[6027,1768],[21,-79],[6,-52]],[[6054,1637],[-1,-63],[-12,-101]],[[6041,1473],[-20,-62],[-31,-62]],[[5990,1349],[-60,-94],[-42,-72]],[[5888,1183],[-46,-96],[-10,-21]],[[5832,1066],[-14,-24],[17,-29],[8,-8],[21,42],[12,37],[23,43],[31,53],[58,82],[55,82],[30,75],[19,70],[8,56],[0,71],[-5,59],[-13,59],[-21,63],[-16,41],[-53,94],[-30,-20]],[[6692,8571],[62,-1],[87,-2],[60,0],[237,-6],[-14,45],[-43,-10],[-49,-5],[-81,8],[-83,21],[-54,24],[-33,16],[-45,16],[-41,12],[-1,-55],[0,-35],[-2,-28]],[[7212,8622],[60,21]],[[7272,8643],[-25,53]],[[7247,8696],[-35,-74]],[[7242,9450],[-41,-60]],[[7201,9390],[-56,-113]],[[7145,9277],[-50,-155]],[[7095,9122],[-1,-198]],[[7094,8924],[52,-180]],[[7146,8744],[101,-48]],[[7247,8696],[-18,37],[-31,72],[-5,10],[-15,52],[-12,67],[-5,87],[0,29],[1,18],[15,96],[2,6],[14,52],[21,64],[26,52],[13,24],[18,31],[33,50],[32,41],[23,22],[10,9],[149,142],[149,140],[152,146],[17,13],[-58,43],[-276,-274],[-113,-112],[-62,-69],[-85,-94]],[[5238,754],[-21,-7],[70,-111],[5,-6],[19,13],[14,13],[72,68],[65,56],[68,68],[28,26],[15,21],[19,25],[-63,-30],[-113,-59],[-50,-27],[25,-10],[6,-9],[-3,-14],[-13,-10],[-18,-8],[-23,-11],[-18,-28],[-8,-9],[-20,-7],[-17,10],[-23,17],[-16,17],[0,12]],[[7747,8156],[284,27],[376,34],[259,29],[455,43],[866,89],[7,14],[5,17],[-186,-27],[-870,-92],[-277,-26],[-263,-25],[-375,-39],[-128,-10],[-153,-34]],[[7440,8077],[-3,18],[-6,-19]],[[7431,8076],[9,1]],[[7608,3766],[55,33],[28,24]],[[7691,3823],[24,28],[20,36],[31,61],[76,159],[-63,38]],[[7779,4145],[-114,-249],[-37,-62],[-34,-20],[-64,-37],[-82,-42],[-51,-26]],[[7397,3709],[26,-45],[185,102]],[[4784,7439],[34,8],[40,43],[63,101],[-133,-39],[16,-65],[-44,-12],[13,-39],[11,3]],[[237,1814],[167,-101],[26,-8],[24,8],[391,437],[316,369],[-25,18],[-9,-12],[14,-8],[-37,-42],[-150,88],[-14,-12],[-35,12],[-172,-195],[-67,44],[-9,-8],[238,-149],[-44,-62],[-143,92],[33,36],[-14,9],[-18,-11],[-23,4],[-202,-229],[173,-114],[-52,-63],[-144,87],[31,35],[-13,7],[-10,-13],[-29,13],[-203,-232]],[[1111,8070],[259,-255],[63,-49]],[[1433,7766],[179,-131],[128,80]],[[1740,7715],[-98,28],[-97,5],[-17,7],[-53,54],[-32,-22],[-11,-3],[-9,5],[-109,109],[-190,190],[-13,-18]],[[5137,767],[2,10],[-8,6],[-229,38],[-102,23],[-144,28],[-43,-5],[83,-43],[60,-40],[25,-20],[15,10],[19,7],[14,3],[24,1],[23,-3],[19,-7],[32,-18],[37,-30],[10,-7],[24,10],[61,21],[78,16]],[[5928,1957],[-38,-20],[72,-25]],[[5962,1912],[-34,45]],[[5311,2329],[-143,159],[16,14],[-28,29],[-96,-51],[-121,129],[-40,-21],[26,-27],[367,-409],[15,8],[18,13],[8,12],[9,25],[7,34],[-1,34],[-4,13],[-33,38]],[[4825,7426],[-23,-16],[-16,-11],[44,11],[-5,16]],[[7838,6806],[14,2],[-72,19]],[[7780,6827],[9,-31],[49,10]],[[7897,6444],[0,-36],[223,10]],[[8120,6418],[113,6],[218,11],[39,0],[13,-3],[16,-4]],[[8519,6428],[24,-9],[30,-14]],[[8573,6405],[20,-17],[13,-13]],[[8606,6375],[4,-8],[7,-11],[7,-43],[-1,-87],[8,-173],[-17,-1],[-43,-1],[-32,6],[-48,3]],[[8491,6060],[-71,-10]],[[8420,6050],[-80,-4]],[[8340,6046],[-95,-8]],[[8245,6038],[-68,-46]],[[8177,5992],[-11,-9]],[[8166,5983],[-4,-5],[-13,-18]],[[8149,5960],[26,-5],[19,20],[22,5],[67,10],[12,4],[3,10],[3,20],[48,1],[57,3],[38,7],[114,1],[31,-5],[31,1],[29,4],[8,-1],[-5,20],[-9,170],[1,87],[-9,46],[-24,39],[-25,24],[-30,16],[-30,14],[-38,12],[-209,-10],[-122,-6],[-80,-1],[-180,-2]],[[5832,1066],[-48,21]],[[5832,1066],[0,0]],[[6541,2913],[-62,34],[-16,-34],[7,-13],[-19,-19],[-13,-10],[-19,-10],[-26,-11],[-37,-7],[-44,-5],[-45,-6],[-43,-8],[-25,-9],[-24,-20],[13,-7],[40,-30],[17,2],[81,48],[60,14],[155,91]],[[6644,8046],[-2,-3],[6,-44],[9,-3],[27,3],[-10,50],[-30,-3]],[[4349,7225],[43,20],[-71,10]],[[4321,7255],[28,-30]],[[8053,4651],[-15,-28],[-211,-373],[-6,-17]],[[7821,4233],[53,-34],[54,107],[92,177],[70,132],[-37,36]],[[6317,8489],[13,-191],[19,-166],[10,-54],[9,-3],[8,3],[5,14],[-7,58],[-21,201],[-7,127],[1,11],[-30,0]],[[8492,6080],[16,7],[13,14],[34,31],[20,22],[5,11],[4,10],[2,18],[-1,18],[-24,40],[-16,2],[-31,15],[-31,25],[16,23],[22,15],[22,14],[31,13],[23,5],[9,12]],[[8606,6375],[-33,30]],[[8573,6405],[-54,23]],[[8519,6428],[-32,-32],[-27,-25],[-29,-17],[-49,-18],[-4,0],[-19,18],[-35,21],[-46,25],[-158,18]],[[8120,6418],[-12,-48],[-13,-16],[-11,-6],[-12,0],[-39,19],[-25,6],[-17,0],[-19,-5],[-30,-20],[-3,-11],[2,-12],[24,-23],[21,-23],[1,-16],[-3,-16],[-27,-24],[-21,-22],[-1,-11],[0,-10],[1,-11],[39,-21],[17,-12],[14,-24],[22,-45],[18,-25],[12,-8],[5,-7],[11,-23],[16,-11],[34,-8],[42,-2]],[[8166,5983],[-71,56]],[[8095,6039],[-47,66]],[[8048,6105],[-22,54]],[[8026,6159],[-3,6]],[[8023,6165],[-20,25],[-3,17]],[[8000,6207],[2,32],[19,29]],[[8021,6268],[23,27],[17,11]],[[8061,6306],[34,11],[27,4]],[[8122,6321],[46,1],[49,-16]],[[8217,6306],[44,-22],[107,-78]],[[8368,6206],[42,-31],[24,-23]],[[8434,6152],[13,-39],[-4,-13]],[[8443,6100],[49,-20]],[[7438,8039],[-63,18]],[[7375,8057],[43,-18]],[[7884,6711],[-69,-7],[3,-42],[-8,-164]],[[7810,6498],[84,2],[-4,175],[-6,36]],[[6416,3180],[-63,-90]],[[6353,3090],[-220,-193]],[[6133,2897],[-45,-60]],[[6088,2837],[54,-25],[100,86]],[[6242,2898],[21,15],[13,9],[46,38],[47,42],[30,35],[5,6]],[[6404,3043],[49,66],[37,46]],[[6490,3155],[36,40]],[[6526,3195],[-110,-15]],[[3855,7157],[-18,52],[-16,15],[-24,6],[-47,-7],[-11,9],[-29,-11],[76,-83],[69,19]],[[6543,3211],[-54,40],[37,-56]],[[6526,3195],[17,16]],[[5872,8636],[-109,0],[-52,-4],[-11,-5],[-3,-68],[12,-2],[179,1],[4,12],[-1,63],[-19,3]],[[172,3157],[163,81]],[[335,3238],[172,58]],[[507,3296],[88,25]],[[595,3321],[66,29]],[[661,3350],[65,57]],[[726,3407],[9,28],[-5,8],[-22,9],[-51,17],[-36,20],[-25,19],[-35,35],[-26,47],[-9,30],[-26,-1],[-29,-4],[-4,-95],[-86,-33],[17,-34],[-241,-85],[-18,32],[-56,-26],[-16,-12],[-5,-15],[6,-13],[15,-55],[2,-45],[-10,-29],[-25,-22],[-37,-22],[-13,-9],[56,-63],[5,3],[111,65]],[[5817,2367],[42,61]],[[5859,2428],[65,27]],[[5924,2455],[103,54]],[[6027,2509],[43,46]],[[6070,2555],[7,13],[8,26],[4,39],[-1,76],[3,31],[4,16],[14,20]],[[6109,2776],[-39,21],[-22,-27],[-6,-16],[-2,-30],[6,-65],[-4,-44],[-5,-24],[-8,-19],[-22,-22],[-38,-23],[-54,-28],[-13,-5]],[[5902,2494],[-27,-9],[-50,-24]],[[5825,2461],[-24,-22],[-16,-28]],[[5785,2411],[-12,-42],[-6,-69]],[[5767,2300],[11,-68],[28,-103]],[[5806,2129],[45,-110],[28,-65],[49,3]],[[5928,1957],[-16,24],[-5,19],[-45,102],[-40,117],[-16,78],[0,38],[11,32]],[[5370,2196],[118,69],[67,38],[-4,19],[-11,11],[-16,9],[-21,4],[-13,-1],[-20,-9],[-94,-64],[0,-27],[-10,-47],[4,-2]],[[1031,7693],[-184,177],[-73,51],[-178,96],[-65,-44],[31,-18],[119,-57],[125,-61],[108,-58],[117,-86]],[[1235,2435],[-35,19],[-233,-293],[-335,-376],[-125,-140],[17,-13],[10,-5],[207,242],[494,566]],[[7477,8097],[2,-15],[101,12],[-103,3]],[[6088,2837],[21,-61]],[[6088,2837],[0,0]],[[5432,7207],[-31,68],[58,98],[4,31],[-73,48],[-4,-2],[-3,-104],[11,-70],[14,-56],[7,-12],[17,-1]],[[5924,944],[26,17],[25,12],[16,6],[29,3],[-10,11],[-21,33],[-26,52],[-12,39],[-4,45],[-14,-20],[-23,-42],[-31,-79],[-16,-33],[42,-33],[19,-11]],[[7897,6444],[-91,-1],[14,-135],[14,-168],[8,-94],[9,-30],[10,-18],[14,-20],[20,-17],[12,-9],[128,-19],[88,-15],[48,-12],[39,-16],[54,-33],[67,-44],[95,-67],[51,-73],[23,-39]],[[8500,5634],[37,-99]],[[8537,5535],[-4,-116]],[[8533,5419],[-34,-63]],[[8499,5356],[-53,-55]],[[8446,5301],[-46,-49]],[[8400,5252],[-61,-77]],[[8339,5175],[-32,-52],[-26,-50],[-64,-117],[-136,-252]],[[8081,4704],[51,-24],[133,225]],[[8265,4905],[45,117]],[[8310,5022],[46,87]],[[8356,5109],[129,154],[32,40],[28,41],[26,57],[16,50],[10,53],[-4,43],[-20,73],[-29,76],[-15,24],[-64,56],[-167,114],[-39,24],[-19,11],[-14,7],[-77,28]],[[8149,5960],[-36,7],[-83,17],[-74,16],[-17,12],[-18,19],[-7,29],[-17,384]],[[581,4965],[-20,-17],[70,-55],[-3,22],[219,172],[14,-15],[17,13],[42,100],[-119,39],[10,21],[-11,2],[-25,-13],[-66,-57],[-9,7],[-191,-157],[72,-62]],[[7382,7986],[6,-54],[21,-173],[47,-154],[18,-45],[4,-6],[44,7],[0,3],[-1,5],[-49,180],[-28,218],[-62,19]],[[5734,2593],[44,-5],[37,0],[23,-2],[10,-2],[14,-9],[10,-18],[0,6],[-4,21],[-9,9],[-22,17],[-72,52],[-67,40],[18,-42],[18,-67]],[[6543,3211],[31,33]],[[6574,3244],[-52,40],[21,-73]],[[6389,7974],[27,6],[-6,38],[-30,-7],[9,-37]],[[1433,7766],[-322,304]],[[1111,8070],[-29,-40],[190,-186],[160,-159],[74,-66],[-73,147]],[[4800,1390],[-1,5],[-2,6],[-4,6],[-4,4],[-4,3],[-7,3],[-8,3],[-8,0],[-6,0],[-8,-2],[-7,-3],[-6,-5],[-4,-3],[-4,-7],[-2,-6],[0,-7],[2,-7],[2,-4],[4,-6],[6,-5],[4,-3],[8,-2],[5,-2],[8,0],[6,1],[8,2],[7,3],[4,3],[4,4],[4,6],[2,6],[1,7]],[[8304,4671],[19,-4],[139,-24],[50,49],[62,60],[-163,30],[14,14],[-117,19],[-56,-133],[52,-11]],[[5430,569],[54,12],[65,9]],[[5549,590],[24,16],[14,23]],[[5587,629],[4,51],[-4,62]],[[5587,742],[-34,-29],[-24,4]],[[5529,717],[-14,25],[110,113]],[[5625,855],[63,77],[-25,21],[-37,-20],[-11,-12],[-15,-25],[-32,-31],[-13,-19],[-81,-83],[-64,-62],[-34,-36],[-37,-32],[91,-64]],[[8081,4704],[36,-47]],[[8081,4704],[0,0]],[[6650,8129],[-22,146],[-9,125],[-1,91],[-30,1],[-1,-15],[4,-88],[22,-217],[11,-46],[26,3]],[[7691,3823],[-83,-57]],[[7608,3766],[-153,-136],[79,56],[139,104],[22,25],[-4,8]],[[4010,7361],[237,71],[55,20],[9,20],[1,18],[-14,4],[-27,2],[-23,-6],[-280,-85],[-71,-22],[-6,-25],[-21,-39],[140,42]],[[934,1823],[32,-23],[39,46],[122,-74],[-40,-44],[12,-6],[11,1],[162,193],[-169,102],[-169,-195]],[[4529,93],[224,119],[84,49],[76,61],[74,67],[50,61],[34,43],[57,49],[50,30],[63,27],[27,20],[-66,122],[-8,5],[-67,-5],[-16,-4],[2,-6],[8,-7],[9,-4],[17,-3],[10,-6],[4,-7],[-1,-11],[-9,-17],[-14,-8],[-20,-3],[-57,-1],[-52,-5],[-47,-6],[-44,-43],[-43,1],[-57,-62],[1,-20],[-99,-109],[-20,0],[-157,-172],[16,-23],[26,-50],[4,-18],[-8,-14],[-13,-12],[-19,-9],[-16,-2],[-46,69],[-10,-10],[0,-11],[30,-47],[16,-27],[7,-1]],[[5526,2531],[-3,-7],[-11,-15],[-17,-10],[-18,-5],[-21,0],[-40,14],[-15,3],[-12,4],[-7,7],[-8,0],[-12,-3],[9,-19],[-13,-11],[59,-63],[18,11],[10,1],[16,-1],[15,-4],[40,-16],[11,2],[15,9],[17,15],[11,15],[3,16],[-3,56],[-44,1]],[[8082,6125],[95,-53]],[[8177,6072],[79,-15]],[[8256,6057],[90,3]],[[8346,6060],[68,18]],[[8414,6078],[29,22]],[[8443,6100],[-9,52]],[[8434,6152],[-66,54]],[[8368,6206],[-151,100]],[[8217,6306],[-95,15]],[[8122,6321],[-61,-15]],[[8061,6306],[-40,-38]],[[8021,6268],[-21,-61]],[[8000,6207],[23,-42]],[[8023,6165],[59,-40]],[[227,2940],[105,46],[95,45],[64,33],[56,41],[35,34],[50,68],[12,18],[40,68],[-101,-33],[-136,-57],[-105,-48],[-65,-34],[-125,-76],[75,-105]],[[4349,7225],[44,-58],[8,-16],[-8,-29],[26,-34],[50,-94],[17,25],[-42,75],[-26,39],[6,34],[-75,58]],[[7838,6806],[-45,-26]],[[7793,6780],[29,5]],[[7822,6785],[36,4],[-20,17]],[[689,1052],[110,174],[-85,48],[-143,-162],[14,-11],[98,-51],[6,2]],[[5959,8644],[2,-86],[23,1],[-1,86],[-24,-1]],[[7821,4233],[-10,-21]],[[7811,4212],[56,-33],[-46,54]],[[2015,3264],[165,-6],[3,29],[3,34],[26,20],[30,399],[-1,15],[-11,13],[-13,6],[-23,5],[-140,6],[-13,-195],[0,-13],[18,-48],[0,-17],[-18,-200],[-2,-3],[-22,-27],[-2,-18]],[[1075,1679],[-27,17],[-208,123],[-8,4],[-222,-250],[238,-136],[7,-1],[220,243]],[[1435,5208],[-26,-14],[-43,-28],[-47,-31],[-45,-30],[-37,-33],[22,-8],[158,-12],[18,156]],[[530,4222],[-227,-183],[360,132],[19,-5],[15,8],[67,40],[-2,22],[-79,68],[-31,23],[-122,-105]],[[7884,6711],[-18,55]],[[7866,6766],[-66,-9],[84,-46]],[[5523,7269],[104,32],[-88,-17],[-49,31],[-33,-193],[-3,-39],[104,39],[-2,9],[-33,138]],[[7830,1076],[19,-56],[31,-24],[12,7],[23,-25],[10,5],[18,-25],[12,3],[16,-28],[11,2],[16,-42],[7,-6],[17,14],[12,8],[77,-63],[72,-60],[71,53],[24,19],[69,23],[29,13],[-39,105],[-28,76],[-34,46],[-44,47],[-22,2],[-33,2],[-94,-12],[-199,-61],[-53,-23]],[[9689,4376],[22,70],[-19,4],[-834,178],[19,70],[-42,9],[-4,-16],[-186,35],[4,14],[-33,6],[-37,-132],[492,-105],[588,-126],[30,-7]],[[402,3920],[12,-11],[491,-208],[21,-2],[11,11],[-206,93],[68,109],[-33,15],[11,21],[-22,36],[-212,-78],[-30,59],[-73,-22],[-33,-13],[-5,-10]],[[5370,7743],[-16,49],[-32,-6],[14,-50],[34,7]],[[7866,6766],[-44,19]],[[7793,6780],[73,-14]],[[7850,4126],[-39,86]],[[7811,4212],[-23,-48],[62,-38]],[[5985,1988],[100,79],[29,36],[13,62],[-61,109],[-7,55],[-1,39],[-11,7],[-9,14],[-12,13],[-8,5],[-14,-21],[-13,-27],[-6,-34],[-1,-25],[4,-34],[12,-65],[2,-30],[-2,-16],[-15,-23],[-11,-30],[-4,-33],[4,-45],[11,-36]],[[2881,7103],[-28,-16]],[[2853,7087],[-57,-10]],[[2796,7077],[-156,39]],[[2640,7116],[-3,-11],[27,-7],[30,-11],[11,-5],[4,-6],[2,-17],[144,-37],[22,-7],[5,6],[38,104],[-39,-22]],[[7403,8159],[-13,99],[-14,81]],[[7376,8339],[-13,51],[-6,25],[-3,9],[-32,85]],[[7322,8509],[-44,115],[-66,-2]],[[7212,8622],[8,-11],[36,-77]],[[7256,8534],[25,-58],[19,-63]],[[7300,8413],[5,-19],[21,-98],[18,-128],[59,-9]],[[1211,3478],[35,-31],[10,-1],[21,10],[-39,48],[-26,-18],[-1,-8]],[[6705,8718],[30,-7],[29,-9],[27,-9],[31,-16],[38,-19],[76,-26],[78,-11],[50,11],[47,15],[-29,63],[-34,81],[-20,66],[-10,78],[-2,64],[4,88],[11,75],[19,82],[27,78],[29,63],[35,61],[18,25],[-16,8],[-204,88],[-39,-69],[72,-22],[-43,-57],[-38,-76],[0,-83],[6,-91],[22,-94],[3,-67],[-32,-17],[-47,-13],[-37,-36],[-16,-26],[-44,-19],[-64,9],[-16,-149],[-1,-33],[40,-6]],[[1360,2305],[-179,-193],[32,-24],[39,42],[141,-83],[124,141],[-147,95],[9,10],[-19,12]],[[7850,4126],[-71,19]],[[7850,4126],[0,0]],[[1041,3268],[-24,46],[-31,54],[-15,-3],[-69,-14],[-107,-24],[-71,-20],[-71,-109],[-39,-58],[-28,-32],[-15,-13],[39,-52],[431,225]],[[3638,7298],[14,-16],[27,10],[3,-3],[22,8],[-14,23],[-19,-7],[1,-4],[-34,-11]],[[7431,8076],[-61,4]],[[7431,8076],[0,0]],[[6567,8116],[-27,199],[-9,110],[2,69],[-133,-4],[15,-198],[15,-118],[15,-81],[122,23]],[[5419,7594],[-39,119],[-22,-5],[10,-39],[23,-72],[6,-3],[22,0]],[[2553,6017],[15,-139],[17,16],[25,11],[-14,42],[-30,46],[-4,24],[-9,0]],[[4309,8644],[-47,76],[-64,107],[-49,97],[-13,27],[-150,-69],[56,-79],[-81,-38],[111,-185],[3,1],[49,11],[129,26],[56,26]],[[7438,8039],[-68,-5]],[[4820,599],[52,58],[-5,11],[-24,17],[-84,68],[-35,27],[-41,24],[-51,27],[-48,22],[-60,-69],[196,-123],[38,-23],[62,-39]],[[6020,8647],[0,-86],[53,-1],[209,0],[5,93],[-7,0],[-260,-6]],[[7425,8094],[-73,33]],[[7425,8094],[0,0]],[[5775,1203],[54,72],[85,141],[31,60],[13,59],[2,50],[-5,31],[-16,53],[-22,41],[-21,30],[-35,37],[-48,49],[-69,-38],[-27,-36],[-5,-58],[26,-107],[18,-385],[5,-21],[14,22]],[[7286,8010],[-8,5],[-111,-10],[-129,-4],[-89,-12],[-71,-7],[-14,-13],[94,5],[94,4],[80,7],[62,13],[92,12]],[[4482,2123],[4,-2],[242,-105],[11,12],[33,54],[3,14],[-224,93],[-22,6],[-47,-72]],[[4719,7593],[-14,40],[-151,-59],[-78,-25],[-50,-13],[-25,-13],[-14,-11],[-9,-17],[11,-13],[16,-1],[30,12],[53,27],[175,59],[56,14]],[[6589,3261],[-51,39],[36,-56]],[[6574,3244],[15,17]],[[1216,3378],[-3,7],[-13,12],[-48,-5],[-94,-13],[46,-77],[45,23],[58,34],[8,12],[1,7]],[[6351,7966],[-8,37],[-389,-92],[-155,-35],[-396,-75],[13,-48],[397,85],[120,32],[80,21],[338,75]],[[7397,3709],[-64,-26]],[[7333,3683],[30,-48],[34,74]],[[7897,6444],[-87,54]],[[7897,6444],[0,0]],[[8140,5416],[12,88],[-16,3],[-11,1],[-5,4],[2,34],[-5,3],[-11,1],[-76,12],[-14,4],[-23,-131],[124,-18],[23,-1]],[[5112,7696],[-16,38],[-163,-36],[-184,-53],[13,-40],[350,91]],[[7333,3683],[-149,-31],[-176,-26],[-60,-18],[-48,-17],[-38,-21],[-49,-35],[-43,-37],[-144,-121],[-37,-116]],[[6589,3261],[46,33],[72,65],[69,65],[106,97],[42,27],[54,26],[42,12],[23,4],[94,11],[207,33],[-11,49]],[[5985,2411],[-41,-20],[-36,-13],[-61,-32],[-11,-13],[-3,-14],[-1,-21],[8,-45],[22,-76],[18,-39],[7,-21],[24,-15],[41,-15],[2,25],[16,37],[6,25],[-3,33],[-8,46],[-2,46],[3,44],[14,45],[9,20],[-4,3]],[[7370,8080],[-52,-3],[-276,1],[-103,-2],[-234,-22],[9,-50],[227,23],[266,16],[163,37]],[[6490,3155],[-86,-112]],[[6404,3043],[30,-37],[1,-7],[-21,-24],[-38,-32],[-14,-8],[-34,-10],[-86,-27]],[[6242,2898],[-89,-91],[8,9],[15,8],[24,11],[56,16],[29,4],[45,4],[26,12],[24,6],[23,9],[23,15],[20,23],[17,28],[18,73],[9,49],[8,34],[24,22],[38,31],[-70,-6]],[[6216,6557],[11,-2],[109,18],[10,6],[3,9],[-25,75],[-105,-8],[-10,-90],[7,-8]],[[996,3133],[209,-145],[7,10],[23,26],[5,10],[-132,89],[-68,47],[-8,-2],[-36,-35]],[[5806,2129],[-39,171]],[[5767,2300],[18,111]],[[5785,2411],[40,50]],[[5825,2461],[77,33]],[[5902,2494],[-21,24],[-7,17],[-7,6],[-13,-11],[-25,-14],[-35,-17],[-36,-18],[-17,-11],[-9,-72],[-15,-77],[-2,-20],[1,-26],[15,-43],[17,-53],[7,-42],[2,-48],[-6,-97],[-1,-36],[3,-24],[38,48],[23,18],[26,16],[-34,115]],[[8478,5354],[30,57]],[[8508,5411],[5,85]],[[8513,5496],[-17,106]],[[8496,5602],[-20,40]],[[8476,5642],[-39,-19],[-15,-16],[6,0],[21,-6],[16,-11],[4,-14],[-23,-157],[-5,-13],[-11,-11],[-10,-12],[23,-53]],[[5739,888],[-28,-42],[-46,-50]],[[5665,796],[-13,-61],[2,-85]],[[5654,650],[16,-10],[66,-31],[31,-12],[14,19],[36,59],[22,48],[21,56],[-1,7],[-41,40],[-36,25],[-43,37]],[[7440,8077],[37,20]],[[7440,8077],[0,0]],[[5888,1183],[102,166]],[[5990,1349],[51,124]],[[6041,1473],[13,164]],[[6054,1637],[-27,131]],[[6027,1768],[-43,107]],[[5984,1875],[-22,37]],[[5962,1912],[-16,-67]],[[5946,1845],[53,-142]],[[5999,1703],[10,-145]],[[6009,1558],[-33,-143]],[[5976,1415],[-167,-289]],[[5809,1126],[23,-60]],[[5832,1066],[56,117]],[[5535,535],[95,35]],[[5630,570],[24,80]],[[5654,650],[0,40],[11,106]],[[5665,796],[74,92]],[[5739,888],[-114,-33]],[[5625,855],[-96,-138]],[[5529,717],[58,25]],[[5587,742],[0,-113]],[[5587,629],[-38,-39]],[[5549,590],[-119,-21]],[[5430,569],[-100,-21],[-43,-9],[-56,-12],[-67,-18],[-59,-33],[-76,-78],[-40,-62],[-38,-71],[-50,-63],[-64,-36],[-186,-94],[-49,-25],[-46,-18],[14,-29],[84,38],[140,67],[64,33],[3,-1],[88,33],[30,29],[57,81],[42,63],[54,85],[101,42],[93,25],[209,40]],[[2613,5879],[-14,-7],[-17,-11],[37,-394],[11,66],[7,30],[0,52],[-24,264]],[[7687,6682],[-153,-84],[18,-53],[132,3],[31,34],[27,51],[-55,49]],[[535,3976],[-4,-6],[6,-15],[8,-1],[124,44],[5,10],[-9,15],[-130,-47]],[[1245,3512],[42,-53],[75,42],[-2,4],[7,5],[-39,50],[-83,-48]],[[1336,3565],[40,-51],[7,5],[4,-4],[109,61],[-43,52],[-117,-63]],[[3491,6901],[-63,124],[-26,-8],[17,-29],[-71,-29],[-19,29],[-55,-30],[-48,-49],[33,10],[34,4],[37,-1],[108,-17],[53,-4]],[[3681,6852],[2,8],[-52,178],[-50,-11],[70,-127],[-26,-14],[21,-32],[35,-2]],[[4435,7373],[7,0],[234,58],[-18,48],[-8,13],[-11,6],[-17,3],[-19,-1],[-161,-53],[-9,-6],[-6,-10],[-5,-13],[-1,-13],[14,-32]],[[7698,8564],[-72,-10]],[[7626,8554],[-29,-93]],[[7597,8461],[40,-112]],[[7637,8349],[60,-33]],[[7697,8316],[41,25]],[[7738,8341],[15,103]],[[7753,8444],[-29,96]],[[7875,8303],[3,299],[-65,-1],[-3,-281],[15,-17],[50,0]],[[7376,8339],[27,-180]],[[7403,8159],[5,10],[8,14],[16,18],[24,24],[23,60],[15,69],[20,77],[12,39],[-3,33],[-9,19],[-16,13],[-8,5],[-24,-40],[-21,-28],[-36,-39],[-33,-94]],[[7272,8643],[50,-134]],[[7322,8509],[56,-66],[27,31],[34,37],[20,42],[-13,9],[-14,13],[-12,15],[-13,29],[-12,37],[-2,24],[6,27],[11,33],[-50,-12],[-31,1],[-16,3],[-13,7],[-13,12],[-14,14],[-12,-2],[-6,-12],[1,-13],[5,-21],[-4,-13],[15,-61]],[[7300,8413],[-44,121]],[[7256,8534],[-44,88]],[[7212,8622],[-72,-22],[11,-45],[7,-38],[1,-37],[-11,-59],[-7,-50],[1,-29],[40,6],[40,14],[39,12],[39,39]],[[7471,8569],[8,18],[10,15],[16,15],[25,21],[-32,22],[-15,11],[-14,11],[-18,18],[-23,30],[-6,-11],[-9,-26],[-2,-16],[2,-19],[6,-24],[18,-39],[13,-14],[21,-12]]],"transform":{"scale":[0.0000029697369736974036,0.0000022361636163615505],"translate":[5.4613863,51.4270256]},"bbox":[5.4613863,51.4270256,5.4910807,51.449385]}